NORAD_CAT_ID,OBJECT_NAME,OBJECT_TYPE,EPOCH,MEAN_MOTION,ECCENTRICITY,INCLINATION,RA_OF_ASC_NODE,ARG_OF_PERICENTER,MEAN_ANOMALY,BSTAR,MEAN_MOTION_DOT,MEAN_MOTION_DDOT,TLE_LINE0,TLE_LINE1,TLE_LINE2,SEMIMAJOR_AXIS,PERIOD,APOGEE,PERIGEE,DECAYED
52612.0,STARLINK-4002,PAYLOAD,2024-04-14 10:40:59,15.08843828,0.0001342,53.2171,155.7038,96.7153,263.3992,0.00011986,1.62e-05,0.0,0 STARLINK-4002,1 52612U 22052Q   24105.44513767  .00001620  00000-0  11986-3 0  9993,2 52612  53.2171 155.7038 0001342  96.7153 263.3992 15.08843828106421,6917.869,95.437,540.662,538.805,0.0
52612.0,STARLINK-4002,PAYLOAD,2024-04-15 02:34:48,15.08868324,0.0001268,53.2169,152.7292,97.5295,262.5842,0.00033544,5.059e-05,0.0,0 STARLINK-4002,1 52612U 22052Q   24106.10750965  .00005059  00000-0  33544-3 0  9994,2 52612  53.2169 152.7292 0001268  97.5295 262.5842 15.08868324106524,6917.794,95.436,540.536,538.782,0.0
52612.0,STARLINK-4002,PAYLOAD,2024-04-15 12:07:09,15.08830247,0.0001558,53.2163,150.9444,84.8407,275.2763,-0.00015799,-2.801e-05,0.0,0 STARLINK-4002,1 52612U 22052Q   24106.50497470 -.00002801  00000-0 -15799-3 0  9993,2 52612  53.2163 150.9444 0001558  84.8407 275.2763 15.08830247106585,6917.91,95.438,540.853,538.697,0.0
52612.0,STARLINK-4002,PAYLOAD,2024-04-16 10:22:34,15.08826066,0.0001519,53.216,146.7824,84.793,275.3235,-0.00024859,-4.241e-05,0.0,0 STARLINK-4002,1 52612U 22052Q   24107.43234403 -.00004241  00000-0 -24859-3 0  9998,2 52612  53.2160 146.7824 0001519  84.7930 275.3235 15.08826066106358,6917.923,95.438,540.839,538.737,0.0
52612.0,STARLINK-4002,PAYLOAD,2024-04-17 02:16:26,15.08829665,0.0001579,53.2167,143.8064,93.9177,266.1996,0.00044441,6.79e-05,0.0,0 STARLINK-4002,1 52612U 22052Q   24108.09474823  .00006790  00000-0  44441-3 0  9991,2 52612  53.2167 143.8064 0001579  93.9177 266.1996 15.08829665106822,6917.912,95.438,540.869,538.685,0.0
52612.0,STARLINK-4002,PAYLOAD,2024-04-17 08:37:58,15.08853947,0.0001644,53.2153,142.6208,83.3165,276.8015,0.00095302,0.00014918,0.0,0 STARLINK-4002,1 52612U 22052Q   24108.35970462  .00014918  00000-0  95302-3 0  9993,2 52612  53.2153 142.6208 0001644  83.3165 276.8015 15.08853947106861,6917.838,95.437,540.84,538.565,0.0
52612.0,STARLINK-4002,PAYLOAD,2024-04-18 11:39:31,15.08840566,8.34e-05,53.2162,137.5646,98.6836,261.425,0.00023112,3.393e-05,0.0,0 STARLINK-4002,1 52612U 22052Q   24109.48578196  .00003393  00000-0  23112-3 0  9991,2 52612  53.2162 137.5646 0000834  98.6836 261.4250 15.08840566107038,6917.879,95.438,540.321,539.167,0.0
52612.0,STARLINK-4002,PAYLOAD,2024-04-19 11:30:18,15.08851019,0.000121,53.2153,133.104,91.5635,268.5496,0.00080957,0.00012624,0.0,0 STARLINK-4002,1 52612U 22052Q   24110.47938572  .00012624  00000-0  80957-3 0  9997,2 52612  53.2153 133.1040 0001210  91.5635 268.5496 15.08851019106816,6917.847,95.437,540.549,538.875,0.0
52612.0,STARLINK-4002,PAYLOAD,2024-04-20 01:48:46,15.08857678,0.0001367,53.2155,130.4265,86.7697,273.3451,0.0006174,9.556e-05,0.0,0 STARLINK-4002,1 52612U 22052Q   24111.07554200  .00009556  00000-0  61740-3 0  9995,2 52612  53.2155 130.4265 0001367  86.7697 273.3451 15.08857678107277,6917.826,95.436,540.637,538.746,0.0
52612.0,STARLINK-4002,PAYLOAD,2024-04-20 08:10:19,15.08855594,0.0001795,53.2174,129.2344,112.5396,247.5786,0.00046286,7.089e-05,0.0,0 STARLINK-4002,1 52612U 22052Q   24111.34050048  .00007089  00000-0  46286-3 0  9993,2 52612  53.2174 129.2344 0001795 112.5396 247.5786 15.08855594106943,6917.833,95.437,540.939,538.456,0.0
52612.0,STARLINK-4002,PAYLOAD,2024-04-21 01:39:33,15.08849233,0.000173,53.2164,125.965,92.5286,267.5905,0.00013302,1.83e-05,0.0,0 STARLINK-4002,1 52612U 22052Q   24112.06913906  .00001830  00000-0  13302-3 0  9995,2 52612  53.2164 125.9650 0001730  92.5286 267.5905 15.08849233107421,6917.852,95.437,540.914,538.52,0.0
52612.0,STARLINK-4002,PAYLOAD,2024-04-21 11:11:53,15.08816631,0.0001115,53.2161,124.1816,82.1163,277.9956,-0.00042771,-7.084e-05,0.0,0 STARLINK-4002,1 52612U 22052Q   24112.46659228 -.00007084  00000-0 -42771-3 0  9994,2 52612  53.2161 124.1816 0001115  82.1163 277.9956 15.08816631107112,6917.952,95.439,540.588,539.045,0.0
52612.0,STARLINK-4002,PAYLOAD,2024-04-22 04:41:08,15.08825545,0.0001201,53.217,120.9169,110.353,249.7591,-3.9925e-05,-9.23e-06,0.0,0 STARLINK-4002,1 52612U 22052Q   24113.19523578 -.00000923  00000-0 -39925-4 0  9996,2 52612  53.2170 120.9169 0001201 110.3530 249.7591 15.08825545107593,6917.925,95.438,540.62,538.959,0.0
52612.0,STARLINK-4002,PAYLOAD,2024-04-22 09:27:17,15.08834854,0.0001342,53.2163,120.0229,112.9695,247.1439,0.00038605,5.861e-05,0.0,0 STARLINK-4002,1 52612U 22052Q   24113.39395594  .00005861  00000-0  38605-3 0  9990,2 52612  53.2163 120.0229 0001342 112.9695 247.1439 15.08834854107258,6917.896,95.438,540.689,538.833,0.0
52612.0,STARLINK-4002,PAYLOAD,2024-04-22 11:02:41,15.08835314,0.0001281,53.2159,119.7238,111.728,248.3849,0.00081473,0.00012701,0.0,0 STARLINK-4002,1 52612U 22052Q   24113.46019913  .00012701  00000-0  81473-3 0  9998,2 52612  53.2159 119.7238 0001281 111.7280 248.3849 15.08835314107639,6917.895,95.438,540.646,538.874,0.0
52612.0,STARLINK-4002,PAYLOAD,2024-04-23 09:18:05,15.08830028,0.0001277,53.2156,115.5617,147.012,213.0952,-0.00020168,-3.495e-05,0.0,0 STARLINK-4002,1 52612U 22052Q   24114.38755817 -.00003495  00000-0 -20168-3 0  9996,2 52612  53.2156 115.5617 0001277 147.0120 213.0952 15.08830028107777,6917.911,95.438,540.659,538.892,0.0
52612.0,STARLINK-4002,PAYLOAD,2024-04-24 07:33:29,15.08867107,9.95e-05,53.2155,111.3976,98.6192,261.4913,0.0018129,0.00028704,0.0,0 STARLINK-4002,1 52612U 22052Q   24115.31492171  .00028704  00000-0  18129-2 0  9992,2 52612  53.2155 111.3976 0000995  98.6192 261.4913 15.08867107107912,6917.798,95.436,540.351,538.974,0.0
52612.0,STARLINK-4002,PAYLOAD,2024-04-25 04:13:29,15.08867589,0.000124,53.2157,107.5371,87.6125,272.5009,0.00104,0.00016315,0.0,0 STARLINK-4002,1 52612U 22052Q   24116.17603472  .00016315  00000-0  10400-2 0  9994,2 52612  53.2157 107.5371 0001240  87.6125 272.5009 15.08867589108046,6917.796,95.436,540.519,538.803,0.0
52612.0,STARLINK-4002,PAYLOAD,2024-04-25 05:48:52,15.08867739,0.0001136,53.2158,107.2388,130.2788,229.8303,0.00047324,7.257e-05,0.0,0 STARLINK-4002,1 52612U 22052Q   24116.24227067  .00007257  00000-0  47324-3 0  9995,2 52612  53.2158 107.2388 0001136 130.2788 229.8303 15.08867739107684,6917.796,95.436,540.446,538.875,0.0
52612.0,STARLINK-4002,PAYLOAD,2024-04-26 04:04:15,15.08850461,0.0001091,53.216,103.0675,107.7017,252.4094,-9.4302e-06,-4.38e-06,0.0,0 STARLINK-4002,1 52612U 22052Q   24117.16962771 -.00000438  00000-0 -94302-5 0  9991,2 52612  53.2160 103.0675 0001091 107.7017 252.4094 15.08850461108194,6917.848,95.437,540.468,538.959,0.0
52612.0,STARLINK-4002,PAYLOAD,2024-04-26 05:39:38,15.08851287,0.0001073,53.2163,102.7706,106.7585,253.3525,-1.7741e-05,-5.7e-06,0.0,0 STARLINK-4002,1 52612U 22052Q   24117.23586760 -.00000570  00000-0 -17741-4 0  9997,2 52612  53.2163 102.7706 0001073 106.7585 253.3525 15.08851287107833,6917.846,95.437,540.453,538.969,0.0
52612.0,STARLINK-4002,PAYLOAD,2024-04-27 05:30:26,15.0883261,0.00011,53.2161,98.3094,89.3763,270.7355,-0.00010016,-1.881e-05,0.0,0 STARLINK-4002,1 52612U 22052Q   24118.22947602 -.00001881  00000-0 -10016-3 0  9996,2 52612  53.2161  98.3094 0001100  89.3763 270.7355 15.08832610108357,6917.903,95.438,540.529,539.007,0.0
52612.0,STARLINK-4002,PAYLOAD,2024-04-27 08:41:13,15.08832528,0.0001139,53.2172,97.716,92.9208,267.1915,-5.6348e-05,-1.184e-05,0.0,0 STARLINK-4002,1 52612U 22052Q   24118.36196088 -.00001184  00000-0 -56348-4 0  9990,2 52612  53.2172  97.7160 0001139  92.9208 267.1915 15.08832528108004,6917.903,95.438,540.556,538.98,0.0
52612.0,STARLINK-4002,PAYLOAD,2024-04-27 15:02:45,15.08837287,0.0001229,53.2184,96.5287,106.0905,254.0222,-2.0906e-05,-6.21e-06,0.0,0 STARLINK-4002,1 52612U 22052Q   24118.62691625 -.00000621  00000-0 -20906-4 0  9992,2 52612  53.2184  96.5287 0001229 106.0905 254.0222 15.08837287108042,6917.889,95.438,540.604,538.903,0.0
52612.0,STARLINK-4002,PAYLOAD,2024-04-28 05:21:14,15.08833542,0.0001102,53.2183,93.8547,87.3888,272.7231,3.2495e-05,2.29e-06,0.0,0 STARLINK-4002,1 52612U 22052Q   24119.22308132  .00000229  00000-0  32495-4 0  9995,2 52612  53.2183  93.8547 0001102  87.3888 272.7231 15.08833542108138,6917.9,95.438,540.527,539.003,0.0
52612.0,STARLINK-4002,PAYLOAD,2024-04-28 14:53:32,15.08844132,0.0001363,53.2191,92.0704,91.8039,268.3109,2.3442e-05,8.5e-07,0.0,0 STARLINK-4002,1 52612U 22052Q   24119.62051360  .00000085  00000-0  23442-4 0  9999,2 52612  53.2191  92.0704 0001363  91.8039 268.3109 15.08844132108569,6917.868,95.437,540.676,538.79,0.0
52612.0,STARLINK-4002,PAYLOAD,2024-04-29 03:36:38,15.08825251,0.0001558,53.2201,89.6933,104.4153,255.7012,0.00018815,2.707e-05,0.0,0 STARLINK-4002,1 52612U 22052Q   24120.15044347  .00002707  00000-0  18815-3 0  9996,2 52612  53.2201  89.6933 0001558 104.4153 255.7012 15.08825251108644,6917.925,95.438,540.868,538.713,0.0
52612.0,STARLINK-4002,PAYLOAD,2024-04-29 08:22:47,15.08827665,0.0001427,53.2194,88.7969,89.0362,271.0793,0.00020022,2.899e-05,0.0,0 STARLINK-4002,1 52612U 22052Q   24120.34916302  .00002899  00000-0  20022-3 0  9991,2 52612  53.2194  88.7969 0001427  89.0362 271.0793 15.08827665108300,6917.918,95.438,540.77,538.796,0.0
52612.0,STARLINK-4002,PAYLOAD,2024-04-29 14:44:19,15.08841699,0.0001491,53.2199,87.6086,93.9214,266.1949,0.00016584,2.352e-05,0.0,0 STARLINK-4002,1 52612U 22052Q   24120.61411530  .00002352  00000-0  16584-3 0  9996,2 52612  53.2199  87.6086 0001491  93.9214 266.1949 15.08841699108710,6917.875,95.437,540.772,538.709,0.0
52612.0,STARLINK-4002,PAYLOAD,2024-04-30 05:02:48,15.08836734,0.0001531,53.2188,84.9335,90.4262,269.6906,2.893e-05,1.72e-06,0.0,0 STARLINK-4002,1 52612U 22052Q   24121.21028444  .00000172  00000-0  28930-4 0  9998,2 52612  53.2188  84.9335 0001531  90.4262 269.6906 15.08836734108800,6917.89,95.438,540.815,538.696,0.0
